STARLINK-36544          
1 67517U 26012AA  26048.16667824  .00005869  00000+0  21718-3 0  9996
2 67517  42.9999  70.2599 0001374 263.6419  92.4156 15.28399761  5775
STARLINK-36412          
1 67518U 26012AB  26048.16667824 -.01858828  00000+0 -65135-1 0  9990
2 67518  42.9993  70.0451 0001394 280.1609 165.2776 15.32298380  5713
STARLINK-36415          
1 67519U 26012AC  26048.16667824 -.01868638  00000+0 -63720-1 0  9999
2 67519  42.9987  69.9818 0001376 285.8056 184.8351 15.33173895  5922
STARLINK-36547          
1 67520U 26012AD  26048.16667824 -.01851275  00000+0 -65807-1 0  9998
2 67520  42.9992  70.0860 0001249 275.6299 152.9142 15.31831546  5718
STARLINK-36444          
1 67521U 26012AE  26048.16667824 -.01867413  00000+0 -63448-1 0  9999
2 67521  43.0001  70.1576 0001332 261.9530 138.2051 15.33285939  5713
HULIANWANG DIGUI-146    
1 67522U 26013A   26047.50660525 -.00000032  00000+0  11837-3 0  9990
2 67522  50.0080  73.2377 0001236 334.4561  25.6268 13.71823317  3923
HULIANWANG DIGUI-147    
1 67523U 26013B   26048.01405116 -.00000041  00000+0  10789-3 0  9996
2 67523  50.0051  71.2411 0001746  38.6205 321.4810 13.72092333  3997
HULIANWANG DIGUI-148    
1 67524U 26013C   26047.57166842 -.00000022  00000+0  12835-3 0  9990
2 67524  50.0090  72.9185 0000233 355.4694   4.6195 13.72180444  3930
HULIANWANG DIGUI-149    
1 67525U 26013D   26047.56696041 -.00000032  00000+0  11759-3 0  9994
2 67525  50.0085  72.8908 0000852  98.4045 261.6943 13.72336276  3930
HULIANWANG DIGUI-150    
1 67526U 26013E   26047.55896043 -.00000023  00000+0  12625-3 0  9991
2 67526  50.0046  72.8315 0000499  64.4392 295.6550 13.72667463  3953
HULIANWANG DIGUI-151    
1 67527U 26013F   26047.62279793 -.00000006  00000+0  14354-3 0  9999
2 67527  50.0091  72.5243 0000499 137.3593 222.7337 13.73319861  3944
HULIANWANG DIGUI-152    
1 67528U 26013G   26047.55661358 -.00000011  00000+0  13844-3 0  9993
2 67528  50.0039  72.8164 0001959 115.1030 245.0064 13.72913823  3935
